BEIDOU-2 IGSO-1 (C06)   
1 36828U 10036A   25296.61699688 -.00000064  00000+0  00000+0 0  9993
2 36828  54.2768 165.1034 0050824 216.4068 339.0080  1.00291121 55726
BEIDOU-2 G4 (C04)       
1 37210U 10057A   25296.50895313 -.00000100  00000+0  00000+0 0  9994
2 37210   3.0559  70.0797 0009629 178.3321 126.9282  1.00270668 54917
BEIDOU-2 IGSO-2 (C07)   
1 37256U 10068A   25295.62146750 -.00000196  00000+0  00000+0 0  9997
2 37256  47.9774 274.7760 0047365 217.7562 226.5735  1.00248502 54417
BEIDOU-2 IGSO-3 (C08)   
1 37384U 11013A   25294.84420201 -.00000197  00000+0  00000+0 0  9990
2 37384  62.0756  42.4125 0036534 182.8263 216.6646  1.00283808 53270
BEIDOU-2 IGSO-4 (C09)   
1 37763U 11038A   25291.64287774 -.00000031  00000+0  00000+0 0  9996
2 37763  54.5782 167.8465 0144843 230.3265 311.9972  1.00254086 52220
BEIDOU-2 IGSO-5 (C10)   
1 37948U 11073A   25296.39280823 -.00000173  00000+0  00000+0 0  9992
2 37948  48.1148 274.4757 0109299 222.1411 130.9642  1.00258285 50751
BEIDOU-2 G5 (C05)       
1 38091U 12008A   25296.59429287  .00000070  00000+0  00000+0 0  9997
2 38091   2.9802  70.8647 0009435 221.5694  12.4835  1.00270861 49995
BEIDOU-2 M3 (C11)       
1 38250U 12018A   25294.77927049 -.00000067  00000+0  00000+0 0  9999
2 38250  55.9631 312.9045 0024648 269.6405  90.1131  1.86229969 91501
BEIDOU-2 M4 (C12)       
1 38251U 12018B   25294.71153562 -.00000066  00000+0  00000+0 0  9994
2 38251  55.8647 312.1399 0015825 270.0973  89.7564  1.86232296 91506
BEIDOU-2 M6 (C14)       
1 38775U 12050B   25294.95939905 -.00000037  00000+0  00000+0 0  9998
2 38775  56.3344  70.7846 0010477 354.0144   5.9525  1.86230975 88877
BEIDOU-2 G6 (C02)       
1 38953U 12059A   25296.49387306 -.00000163  00000+0  00000+0 0  9998
2 38953   3.8171  75.9923 0006426 301.7404 276.3241  1.00271992 47537
BEIDOU-3S IGSO-1S (C31) 
1 40549U 15019A   25296.49491306 -.00000135  00000+0  00000+0 0  9996
2 40549  49.6471 298.3150 0040515 197.5583 164.3160  1.00251764 38701
BEIDOU-3S M2S (C58)     
1 40748U 15037A   25295.45331163 -.00000065  00000+0  00000+0 0  9998
2 40748  55.0829 310.2245 0012940 260.0178  99.8652  1.86229357 69693
BEIDOU-3S M1S (C57)     
1 40749U 15037B   25296.22717147 -.00000061  00000+0  00000+0 0  9991
2 40749  55.0789 310.1881 0002981 350.9682   9.0541  1.86254073 69713
BEIDOU-3S IGSO-2S (C56) 
1 40938U 15053A   25294.84292536 -.00000154  00000+0  00000+0 0  9998
2 40938  49.5959 261.6191 0061422 189.7961 338.2620  1.00282517 36963
BEIDOU-2 IGSO-6 (C13)   
1 41434U 16021A   25295.80981249 -.00000162  00000+0  00000+0 0  9998
2 41434  59.8958  40.4104 0058189 229.0135 147.9031  1.00264164 35106
BEIDOU-2 G7 (C03)       
1 41586U 16037A   25296.58818066 -.00000341  00000+0  00000+0 0  9994
2 41586   1.6307  67.1060 0005691 339.2583 308.2207  1.00271747  4518
BEIDOU-3 M1 (C19)       
1 43001U 17069A   25294.18797155 -.00000037  00000+0  00000+0 0  9995
2 43001  56.4824  70.9699 0007324 309.0472  50.8680  1.86231332 54151
BEIDOU-3 M2 (C20)       
1 43002U 17069B   25293.58929897 -.00000035  00000+0  00000+0 0  9997
2 43002  56.4810  71.0257 0005426 348.0999  11.8689  1.86230865 54131
BEIDOU-3 M7 (C27)       
1 43107U 18003A   25293.87009844 -.00000069  00000+0  00000+0 0  9992
2 43107  54.5423 310.6535 0002299  88.2143 271.8461  1.86232606 52898
BEIDOU-3 M8 (C28)       
1 43108U 18003B   25295.96237368 -.00000064  00000+0  00000+0 0  9994
2 43108  54.5335 310.5639 0005002 263.9191  96.0520  1.86231106 52948
BEIDOU-3 M4 (C22)       
1 43207U 18018A   25294.79315977 -.00000037  00000+0  00000+0 0  9993
2 43207  56.4419  71.0220 0004603  35.4004 324.6097  1.86231261 52309
BEIDOU-3 M3 (C21)       
1 43208U 18018B   25294.32276946 -.00000037  00000+0  00000+0 0  9995
2 43208  56.4408  71.0417 0005077 329.1354  30.8149  1.86231362 52297
BEIDOU-3 M9 (C29)       
1 43245U 18029A   25295.61274435 -.00000064  00000+0  00000+0 0  9992
2 43245  54.4111 308.2511 0002153 254.0613 105.9400  1.86232978 51470
BEIDOU-3 M10 (C30)      
1 43246U 18029B   25295.54787600 -.00000064  00000+0  00000+0 0  9998
2 43246  54.4087 308.2808 0003177 354.4185   5.6033  1.86229242 51454
BEIDOU-2 IGSO-7 (C16)   
1 43539U 18057A   25296.58117116 -.00000071  00000+0  00000+0 0  9996
2 43539  55.1686 165.1122 0091784 235.7337 313.1745  1.00272673 26756
BEIDOU-3 M5 (C23)       
1 43581U 18062A   25295.77270380  .00000031  00000+0  00000+0 0  9997
2 43581  54.0905 190.3778 0002958 321.1609  38.8984  1.86228874 49219
BEIDOU-3 M6 (C24)       
1 43582U 18062B   25295.63606527  .00000031  00000+0  00000+0 0  9999
2 43582  54.0901 190.3715 0006868  34.9989 325.1263  1.86229985 49217
BEIDOU-3 M12 (C26)      
1 43602U 18067A   25295.03635623  .00000031  00000+0  00000+0 0  9990
2 43602  54.1841 189.1181 0008651  34.7539 325.3820  1.86227779 48688
BEIDOU-3 M11 (C25)      
1 43603U 18067B   25296.24466302  .00000033  00000+0  00000+0 0  9993
2 43603  54.1816 189.0412 0005182  27.8504 332.2619  1.86227252 48733
BEIDOU-3 M13 (C32)      
1 43622U 18072A   25292.97988365 -.00000034  00000+0  00000+0 0  9996
2 43622  56.4162  70.5992 0004006 315.2375  44.7134  1.86230803 48186
BEIDOU-3 M14 (C33)      
1 43623U 18072B   25293.91923175 -.00000037  00000+0  00000+0 0  9993
2 43623  56.4158  70.5624 0002658   8.2884 351.6968  1.86231128 48196
BEIDOU-3 M16 (C35)      
1 43647U 18078A   25296.22561037 -.00000061  00000+0  00000+0 0  9994
2 43647  54.3069 308.2873 0006170  17.8354 342.2101  1.86232433 47743
BEIDOU-3 M15 (C34)      
1 43648U 18078B   25294.74396176 -.00000067  00000+0  00000+0 0  9996
2 43648  54.3035 308.3401 0002729  17.2738 342.7629  1.86232366 47735
BEIDOU-3 G1 (C59)       
1 43683U 18085A   25296.54781916 -.00000264  00000+0  00000+0 0  9992
2 43683   2.9781 104.0077 0002969  12.3855 253.0711  1.00268217 25689
BEIDOU-3 M17 (C36)      
1 43706U 18093A   25296.24235443  .00000032  00000+0  00000+0 0  9995
2 43706  54.1740 190.3365 0007577 301.2494 237.6274  1.86228451 47121
BEIDOU-3 M18 (C37)      
1 43707U 18093B   25295.83685036  .00000032  00000+0  00000+0 0  9997
2 43707  54.1746 190.3420 0006956 338.7467  21.3055  1.86230144 47111
BEIDOU-3 IGSO-1 (C38)   
1 44204U 19023A   25294.79687675 -.00000228  00000+0  00000+0 0  9997
2 44204  58.3620  40.1148 0026431 218.5589 176.1839  1.00260535  4823
BEIDOU-2 G8 (C01)       
1 44231U 19027A   25296.50591978 -.00000236  00000+0  00000+0 0  9991
2 44231   1.5306  74.5061 0007302 256.9815  27.3007  1.00268349 23706
BEIDOU-3 IGSO-2 (C39)   
1 44337U 19035A   25296.55004189 -.00000072  00000+0  00000+0 0  9993
2 44337  55.2156 160.9445 0037188 202.4875 345.3594  1.00287212 23293
BEIDOU-3 M24 (C46)      
1 44542U 19061A   25295.90837062  .00000032  00000+0  00000+0 0  9997
2 44542  54.4017 190.7320 0009205  14.5956 345.5116  1.86229494 41375
BEIDOU-3 M23 (C45)      
1 44543U 19061B   25296.30935881  .00000032  00000+0  00000+0 0  9991
2 44543  54.4001 190.6868 0005824   6.8041 174.9608  1.86229705 41383
BEIDOU-3 IGSO-3 (C40)   
1 44709U 19073A   25295.37369091 -.00000189  00000+0  00000+0 0  9992
2 44709  55.2125 283.4693 0045160 191.9838 167.8504  1.00259185 22079
BEIDOU-3 M22 (C44)      
1 44793U 19078A   25295.74901219 -.00000064  00000+0  00000+0 0  9997
2 44793  54.1538 308.1754 0004821  22.9832 337.0629  1.86232213 40220
BEIDOU-3 M21 (C43)      
1 44794U 19078B   25295.88551259 -.00000063  00000+0  00000+0 0  9997
2 44794  54.1271 308.1366 0003057   7.6337 352.3950  1.86227883 40239
BEIDOU-3 M19 (C41)      
1 44864U 19090A   25295.29874953 -.00000037  00000+0  00000+0 0  9994
2 44864  56.3494  70.6669 0016058 284.9991 236.9294  1.86231624 39803
BEIDOU-3 M20 (C42)      
1 44865U 19090B   25295.16108878 -.00000037  00000+0  00000+0 0  9997
2 44865  56.3507  70.7055 0013283 299.3103 219.9406  1.86231595 39781
BEIDOU-3 G2 (C60)       
1 45344U 20017A   25296.49309306 -.00000129  00000+0  00000+0 0  9999
2 45344   2.9047  42.8034 0002669 261.7655 345.1594  1.00272021 20884
BEIDOU-3 G3 (C61)       
1 45807U 20040A   25295.62149567 -.00000342  00000+0  00000+0 0  9991
2 45807   1.8637  66.0366 0004314 305.2258 354.2163  1.00264955 19685
BEIDOU-3 G4 (C62)       
1 56564U 23066A   25296.57961350 -.00000100  00000+0  00000+0 0  9993
2 56564   0.9299 298.2918 0004759 219.4976 243.0978  1.00273688  9028
BEIDOU-3 M28 (C50)      
1 58654U 23207A   25294.89013286 -.00000040  00000+0  00000+0 0  9994
2 58654  55.5396  70.3560 0000510 226.4348 133.5410  1.86229844 12407
BEIDOU-3 M26 (C48)      
1 58655U 23207B   25294.15125113 -.00000040  00000+0  00000+0 0  9997
2 58655  55.5409  70.3672 0002047 229.9628 130.0001  1.86231456 12379
BEIDOU-3 M25 (C47)      
1 61186U 24168B   25293.43423748 -.00000068  00000+0  00000+0 0  9992
2 61186  54.6879 310.5672 0005370 284.8583  71.4701  1.86230311  7316
BEIDOU-3 M27 (C49)      
1 61187U 24168C   25295.30843703 -.00000066  00000+0  00000+0 0  9996
2 61187  54.6820 310.4863 0001783 311.9143 355.8838  1.86230453  4822
